H1 CPF  1  DLR 2022 12 10 13  8442 technosat            
H2  1704205 6203    42829 2022 12 10 00 00 00 2022 12 17 00 00 00    60 1 1  0 0 0
H9
10 0 59925  14400.000000  0      -4480473.694      -5284021.873        702519.740
10 0 59925  14460.000000  0      -4568759.982      -5250270.665        253234.133
10 0 59925  14520.000000  0      -4637310.723      -5193607.992       -197131.580
10 0 59925  14580.000000  0      -4685645.506      -5114457.961       -646657.412
10 0 59925  14640.000000  0      -4713374.985      -5013344.670      -1093428.757
10 0 59925  14700.000000  0      -4720203.230      -4890888.918      -1535544.872
10 0 59925  14760.000000  0      -4705929.610      -4747804.445      -1971127.248
10 0 59925  14820.000000  0      -4670450.184      -4584893.717      -2398327.819
10 0 59925  14880.000000  0      -4613758.598      -4403043.321      -2815336.940
10 0 59925  14940.000000  0      -4535946.515      -4203219.020      -3220391.143
10 0 59925  15000.000000  0      -4437203.549      -3986460.455      -3611780.619
10 0 59925  15060.000000  0      -4317816.736      -3753875.589      -3987856.374
10 0 59925  15120.000000  0      -4178169.552      -3506634.871      -4347037.096
10 0 59925  15180.000000  0      -4018740.474      -3245965.159      -4687815.641
10 0 59925  15240.000000  0      -3840101.076      -2973143.465      -5008765.133
10 0 59925  15300.000000  0      -3642913.713      -2689490.560      -5308544.633
10 0 59925  15360.000000  0      -3427928.804      -2396364.483      -5585904.403
10 0 59925  15420.000000  0      -3195981.760      -2095153.973      -5839690.742
10 0 59925  15480.000000  0      -2947989.535      -1787271.844      -6068850.419
10 0 59925  15540.000000  0      -2684946.800      -1474148.344      -6272434.645
10 0 59925  15600.000000  0      -2407921.772      -1157224.534      -6449602.581
10 0 59925  15660.000000  0      -2118051.748       -837945.730      -6599624.359
10 0 59925  15720.000000  0      -1816538.349       -517755.014      -6721883.640
10 0 59925  15780.000000  0      -1504642.557       -198086.892      -6815879.699
10 0 59925  15840.000000  0      -1183679.549        119638.914      -6881229.127
10 0 59925  15900.000000  0       -855013.257        434023.538      -6917667.194
10 0 59925  15960.000000  0       -520050.681        743694.957      -6925048.731
10 0 59925  16020.000000  0       -180236.024       1047313.793      -6903348.497
10 0 59925  16080.000000  0        162955.274       1343578.814      -6852661.152
10 0 59925  16140.000000  0        508022.688       1631232.288      -6773201.005
10 0 59925  16200.000000  0        853447.067       1909065.249      -6665301.240
10 0 59925  16260.000000  0       1197697.178       2175922.429      -6529412.519
10 0 59925  16320.000000  0       1539236.224       2430706.899      -6366101.267
10 0 59925  16380.000000  0       1876528.534       2672384.556      -6176047.621
10 0 59925  16440.000000  0       2208046.351       2899988.278      -5960042.797
10 0 59925  16500.000000  0       2532276.575       3112621.700      -5718986.048
10 0 59925  16560.000000  0       2847727.499       3309462.729      -5453881.308
10 0 59925  16620.000000  0       3152935.590       3489766.808      -5165833.435
10 0 59925  16680.000000  0       3446472.272       3652869.848      -4856043.968
10 0 59925  16740.000000  0       3726950.619       3798190.755      -4525806.461
10 0 59925  16800.000000  0       3993031.937       3925233.620      -4176501.436
10 0 59925  16860.000000  0       4243432.247       4033589.534      -3809590.931
10 0 59925  16920.000000  0       4476928.608       4122937.989      -3426612.623
10 0 59925  16980.000000  0       4692365.177       4193047.862      -3029173.599
10 0 59925  17040.000000  0       4888659.010       4243777.997      -2618943.786
10 0 59925  17100.000000  0       5064805.630       4275077.382      -2197649.137
10 0 59925  17160.000000  0       5219884.350       4286984.906      -1767064.437
10 0 59925  17220.000000  0       5353063.169       4279628.646      -1329005.817
10 0 59925  17280.000000  0       5463603.287       4253224.753       -885323.106
10 0 59925  17340.000000  0       5550863.228       4208075.910       -437891.978
10 0 59925  17400.000000  0       5614302.531       4144569.404         11394.047
10 0 59925  17460.000000  0       5653485.044       4063174.771        460631.726
10 0 59925  17520.000000  0       5668081.704       3964441.014        907916.350
10 0 59925  17580.000000  0       5657872.788       3848993.408       1351350.003
10 0 59925  17640.000000  0       5622749.665       3717529.940       1789049.808
10 0 59925  17700.000000  0       5562715.994       3570817.426       2219156.144
10 0 59925  17760.000000  0       5477888.341       3409687.322       2639840.768
10 0 59925  17820.000000  0       5368496.283       3235031.213       3049314.796
10 0 59925  17880.000000  0       5234881.944       3047796.012       3445836.513
10 0 59925  17940.000000  0       5077498.982       2848978.912       3827718.940
10 0 59925  18000.000000  0       4896910.981       2639622.080       4193337.171
10 0 59925  18060.000000  0       4693789.291       2420807.167       4541135.172
10 0 59925  18120.000000  0       4468910.716       2193649.889       4869632.447
10 0 59925  18180.000000  0       4223154.380       1959294.343       5177430.640
10 0 59925  18240.000000  0       3957498.023       1718907.209       5463219.457
10 0 59925  18300.000000  0       3673013.944       1473671.898       5725782.199
10 0 59925  18360.000000  0       3370864.495       1224782.652       5964000.854
10 0 59925  18420.000000  0       3052297.175        973438.694       6176860.706
10 0 59925  18480.000000  0       2718639.383        720838.463       6363454.505
10 0 59925  18540.000000  0       2371292.833        468173.959       6522986.247
10 0 59925  18600.000000  0       2011727.623        216625.120       6654774.562
10 0 59925  18660.000000  0       1641475.958        -32645.694       6758255.611
10 0 59925  18720.000000  0       1262125.536       -278499.095       6832985.539
10 0 59925  18780.000000  0        875312.615       -519823.960       6878642.323
10 0 59925  18840.000000  0        482714.932       -755542.476       6895027.076
10 0 59925  18900.000000  0         86044.395       -984614.958       6882064.983
10 0 59925  18960.000000  0       -312960.435      -1206044.511       6839805.662
10 0 59925  19020.000000  0       -712541.995      -1418881.440       6768423.037
10 0 59925  19080.000000  0      -1110931.523      -1622227.390       6668214.667
10 0 59925  19140.000000  0      -1506356.885      -1815239.185       6539600.560
10 0 59925  19200.000000  0      -1897050.454      -1997132.343       6383121.573
10 0 59925  19260.000000  0      -2281257.030      -2167184.315       6199437.366
10 0 59925  19320.000000  0      -2657241.820      -2324737.471       5989323.944
10 0 59925  19380.000000  0      -3023298.545      -2469201.830       5753670.666
10 0 59925  19440.000000  0      -3377757.501      -2600057.400       5493476.552
10 0 59925  19500.000000  0      -3718993.352      -2716856.108       5209846.099
10 0 59925  19560.000000  0      -4045432.817      -2819223.423       4903984.710
10 0 59925  19620.000000  0      -4355562.189      -2906859.573       4577193.604
10 0 59925  19680.000000  0      -4647934.599      -2979540.349       4230864.312
10 0 59925  19740.000000  0      -4921177.027      -3037117.550       3866472.756
10 0 59925  19800.000000  0      -5173997.002      -3079519.031       3485572.947
10 0 59925  19860.000000  0      -5405188.999      -3106748.386       3089790.323
10 0 59925  19920.000000  0      -5613640.498      -3118884.252       2680814.707
10 0 59925  19980.000000  0      -5798337.609      -3116079.227       2260392.888
10 0 59925  20040.000000  0      -5958370.212      -3098558.422       1830320.901
10 0 59925  20100.000000  0      -6092936.619      -3066617.591       1392436.031
10 0 59925  20160.000000  0      -6201347.652      -3020620.839        948608.627
10 0 59925  20220.000000  0      -6283030.184      -2960998.008        500733.847
10 0 59925  20280.000000  0      -6337530.177      -2888241.794         50723.244
10 0 59925  20340.000000  0      -6364515.123      -2802904.510       -399503.774
10 0 59925  20400.000000  0      -6363775.829      -2705594.521       -848028.535
10 0 59925  20460.000000  0      -6335227.538      -2596972.393      -1292941.637
10 0 59925  20520.000000  0      -6278910.397      -2477746.828      -1732351.352
10 0 59925  20580.000000  0      -6194989.345      -2348670.385      -2164391.879
10 0 59925  20640.000000  0      -6083753.423      -2210535.021      -2587231.445
10 0 59925  20700.000000  0      -5945614.478      -2064167.473      -2999080.192
10 0 59925  20760.000000  0      -5781105.271      -1910424.512      -3398197.851
10 0 59925  20820.000000  0      -5590876.988      -1750188.105      -3782901.085
10 0 59925  20880.000000  0      -5375696.243      -1584360.517      -4151570.504
10 0 59925  20940.000000  0      -5136441.579      -1413859.381      -4502657.363
10 0 59925  21000.000000  0      -4874099.457      -1239612.751      -4834689.906
10 0 59925  21060.000000  0      -4589759.756      -1062554.161      -5146279.309
10 0 59925  21120.000000  0      -4284610.807       -883617.751      -5436125.159
10 0 59925  21180.000000  0      -3959934.084       -703733.481      -5703020.512
10 0 59925  21240.000000  0      -3617098.515       -523822.430      -5945856.519
10 0 59925  21300.000000  0      -3257554.453       -344792.224      -6163626.602
10 0 59925  21360.000000  0      -2882827.383       -167532.616      -6355430.161
10 0 59925  21420.000000  0      -2494511.350          7088.756      -6520475.904
10 0 59925  21480.000000  0      -2094262.069        178230.434      -6658084.697
10 0 59925  21540.000000  0      -1683789.871        345080.984      -6767691.903
99
